{
  "type": "FeatureCollection",
  "features": [
    {
      "type": "Feature",
      "properties": {
        "norad_id": 32376,
        "name": "COSMO-SKYMED 2",
        "group": "resource",
        "lat": 46.287008252727766,
        "lon": 6.482868961873787,
        "alt_km": 617.93168944429,
        "timestamp": "2025-12-22T23:36:20.356312+00:00",
        "meta_object_name": "COSMO-SKYMED 2",
        "meta_object_id": "2007-059A",
        "meta_epoch": "2025-12-22T14:54:22.259808",
        "meta_mean_motion": 14.821541,
        "meta_eccentricity": 0.00013211,
        "meta_inclination": 97.8804,
        "meta_ra_of_asc_node": 177.7961,
        "meta_arg_of_pericenter": 82.8176,
        "meta_mean_anomaly": 277.3187,
        "meta_ephemeris_type": 0,
        "meta_classification_type": "U",
        "meta_norad_cat_id": 32376,
        "meta_element_set_no": 999,
        "meta_rev_at_epoch": 97584,
        "meta_bstar": 6.7643931e-05,
        "meta_mean_motion_dot": 4.86e-06,
        "meta_mean_motion_ddot": 0,
        "tle_line1": "1 32376U 07059A   25356.62109097  .00000486  00000+0  67644-4 0  9995",
        "tle_line2": "2 32376  97.8804 177.7961 0001321  82.8176 277.3187 14.82154100975840"
      },
      "geometry": {
        "type": "Point",
        "coordinates": [
          6.482868961873787,
          46.287008252727766
        ]
      }
    },
    {
      "type": "Feature",
      "properties": {
        "norad_id": 32382,
        "name": "RADARSAT-2",
        "group": "resource",
        "lat": -38.26958667764143,
        "lon": 8.263984392404058,
        "alt_km": 798.5985756347818,
        "timestamp": "2025-12-22T23:36:20.356322+00:00",
        "meta_object_name": "RADARSAT-2",
        "meta_object_id": "2007-061A",
        "meta_epoch": "2025-12-22T13:42:39.168288",
        "meta_mean_motion": 14.29984509,
        "meta_eccentricity": 0.00011328,
        "meta_inclination": 98.579,
        "meta_ra_of_asc_node": 1.0182,
        "meta_arg_of_pericenter": 84.1294,
        "meta_mean_anomaly": 276.0017,
        "meta_ephemeris_type": 0,
        "meta_classification_type": "U",
        "meta_norad_cat_id": 32382,
        "meta_element_set_no": 999,
        "meta_rev_at_epoch": 94071,
        "meta_bstar": 6.8465244e-05,
        "meta_mean_motion_dot": 1.33e-06,
        "meta_mean_motion_ddot": 0,
        "tle_line1": "1 32382U 07061A   25356.57128667  .00000133  00000+0  68465-4 0  9994",
        "tle_line2": "2 32382  98.5790   1.0182 0001132  84.1294 276.0017 14.29984509940710"
      },
      "geometry": {
        "type": "Point",
        "coordinates": [
          8.263984392404058,
          -38.26958667764143
        ]
      }
    },
    {
      "type": "Feature",
      "properties": {
        "norad_id": 32783,
        "name": "CARTOSAT-2A",
        "group": "resource",
        "lat": 25.09803774796463,
        "lon": -129.83603501540537,
        "alt_km": 639.7419479042073,
        "timestamp": "2025-12-22T23:36:20.356334+00:00",
        "meta_object_name": "CARTOSAT-2A",
        "meta_object_id": "2008-021A",
        "meta_epoch": "2025-12-22T14:47:23.936064",
        "meta_mean_motion": 14.78946789,
        "meta_eccentricity": 0.00111512,
        "meta_inclination": 97.7916,
        "meta_ra_of_asc_node": 46.131,
        "meta_arg_of_pericenter": 332.2084,
        "meta_mean_anomaly": 27.8531,
        "meta_ephemeris_type": 0,
        "meta_classification_type": "U",
        "meta_norad_cat_id": 32783,
        "meta_element_set_no": 999,
        "meta_rev_at_epoch": 95270,
        "meta_bstar": -5.8321107e-05,
        "meta_mean_motion_dot": -4.81e-06,
        "meta_mean_motion_ddot": 0,
        "tle_line1": "1 32783U 08021A   25356.61624926 -.00000481  00000+0 -58321-4 0  9998",
        "tle_line2": "2 32783  97.7916  46.1310 0011151 332.2084  27.8531 14.78946789952702"
      },
      "geometry": {
        "type": "Point",
        "coordinates": [
          -129.83603501540537,
          25.09803774796463
        ]
      }
    },
    {
      "type": "Feature",
      "properties": {
        "norad_id": 33320,
        "name": "HUANJING 1A (HJ-1A)",
        "group": "resource",
        "lat": -4.320685148690694,
        "lon": 164.27210881210829,
        "alt_km": 635.7080130006916,
        "timestamp": "2025-12-22T23:36:20.356348+00:00",
        "meta_object_name": "HUANJING 1A (HJ-1A)",
        "meta_object_id": "2008-041A",
        "meta_epoch": "2025-12-22T14:41:00.080736",
        "meta_mean_motion": 14.83423626,
        "meta_eccentricity": 0.001944,
        "meta_inclination": 97.6541,
        "meta_ra_of_asc_node": 344.498,
        "meta_arg_of_pericenter": 3.2392,
        "meta_mean_anomaly": 356.8945,
        "meta_ephemeris_type": 0,
        "meta_classification_type": "U",
        "meta_norad_cat_id": 33320,
        "meta_element_set_no": 999,
        "meta_rev_at_epoch": 93222,
        "meta_bstar": 0.00018712343,
        "meta_mean_motion_dot": 1.49e-05,
        "meta_mean_motion_ddot": 0,
        "tle_line1": "1 33320U 08041A   25356.61180649  .00001490  00000+0  18712-3 0  9995",
        "tle_line2": "2 33320  97.6541 344.4980 0019440   3.2392 356.8945 14.83423626932221"
      },
      "geometry": {
        "type": "Point",
        "coordinates": [
          164.27210881210829,
          -4.320685148690694
        ]
      }
    },
    {
      "type": "Feature",
      "properties": {
        "norad_id": 33321,
        "name": "HUANJING 1B (HJ-1B)",
        "group": "resource",
        "lat": 23.649501137559284,
        "lon": -14.845508968617088,
        "alt_km": 594.8009600078567,
        "timestamp": "2025-12-22T23:36:20.356358+00:00",
        "meta_object_name": "HUANJING 1B (HJ-1B)",
        "meta_object_id": "2008-041B",
        "meta_epoch": "2025-12-22T13:46:55.193952",
        "meta_mean_motion": 14.82843274,
        "meta_eccentricity": 0.00379463,
        "meta_inclination": 97.6398,
        "meta_ra_of_asc_node": 348.1331,
        "meta_arg_of_pericenter": 44.5736,
        "meta_mean_anomaly": 315.8519,
        "meta_ephemeris_type": 0,
        "meta_classification_type": "U",
        "meta_norad_cat_id": 33321,
        "meta_element_set_no": 999,
        "meta_rev_at_epoch": 93223,
        "meta_bstar": 6.8120857e-05,
        "meta_mean_motion_dot": 5.06e-06,
        "meta_mean_motion_ddot": 0,
        "tle_line1": "1 33321U 08041B   25356.57424993  .00000506  00000+0  68121-4 0  9991",
        "tle_line2": "2 33321  97.6398 348.1331 0037946  44.5736 315.8519 14.82843274932231"
      },
      "geometry": {
        "type": "Point",
        "coordinates": [
          -14.845508968617088,
          23.649501137559284
        ]
      }
    },
    {
      "type": "Feature",
      "properties": {
        "norad_id": 33331,
        "name": "GEOEYE 1",
        "group": "resource",
        "lat": 62.890963837986654,
        "lon": 51.93227931976075,
        "alt_km": 673.8968325182586,
        "timestamp": "2025-12-22T23:36:20.356369+00:00",
        "meta_object_name": "GEOEYE 1",
        "meta_object_id": "2008-042A",
        "meta_epoch": "2025-12-22T13:28:37.176960",
        "meta_mean_motion": 14.6471278,
        "meta_eccentricity": 0.00028895,
        "meta_inclination": 98.124,
        "meta_ra_of_asc_node": 67.7181,
        "meta_arg_of_pericenter": 241.9162,
        "meta_mean_anomaly": 118.1749,
        "meta_ephemeris_type": 0,
        "meta_classification_type": "U",
        "meta_norad_cat_id": 33331,
        "meta_element_set_no": 999,
        "meta_rev_at_epoch": 92429,
        "meta_bstar": 0.00010877355,
        "meta_mean_motion_dot": 5.32e-06,
        "meta_mean_motion_ddot": 0,
        "tle_line1": "1 33331U 08042A   25356.56154140  .00000532  00000+0  10877-3 0  9999",
        "tle_line2": "2 33331  98.1240  67.7181 0002889 241.9162 118.1749 14.64712780924298"
      },
      "geometry": {
        "type": "Point",
        "coordinates": [
          51.93227931976075,
          62.890963837986654
        ]
      }
    },
    {
      "type": "Feature",
      "properties": {
        "norad_id": 33396,
        "name": "THEOS",
        "group": "resource",
        "lat": 74.84933359089776,
        "lon": 20.857367382796117,
        "alt_km": 817.0208063845057,
        "timestamp": "2025-12-22T23:36:20.356379+00:00",
        "meta_object_name": "THEOS",
        "meta_object_id": "2008-049A",
        "meta_epoch": "2025-12-22T14:47:14.444160",
        "meta_mean_motion": 14.20098515,
        "meta_eccentricity": 0.00012176,
        "meta_inclination": 98.5855,
        "meta_ra_of_asc_node": 54.4143,
        "meta_arg_of_pericenter": 92.2124,
        "meta_mean_anomaly": 267.9193,
        "meta_ephemeris_type": 0,
        "meta_classification_type": "U",
        "meta_norad_cat_id": 33396,
        "meta_element_set_no": 999,
        "meta_rev_at_epoch": 89290,
        "meta_bstar": 3.6743296e-05,
        "meta_mean_motion_dot": 3.6e-07,
        "meta_mean_motion_ddot": 0,
        "tle_line1": "1 33396U 08049A   25356.61613940  .00000036  00000+0  36743-4 0  9991",
        "tle_line2": "2 33396  98.5855  54.4143 0001217  92.2124 267.9193 14.20098515892908"
      },
      "geometry": {
        "type": "Point",
        "coordinates": [
          20.857367382796117,
          74.84933359089776
        ]
      }
    }
  ]
}